{
  "type": "FeatureCollection",
  "features": [
    {
      "type": "Feature",
      "properties": {
        "norad_id": 66578,
        "name": "STARLINK-35743",
        "group": "last-30-days",
        "lat": 42.51693041113505,
        "lon": -120.97974108238785,
        "alt_km": 371.75832256263675,
        "timestamp": "2025-12-06T05:40:08.012155+00:00",
        "meta_object_name": "STARLINK-35743",
        "meta_object_id": "2025-268X",
        "meta_epoch": "2025-12-05T06:00:02.000160",
        "meta_mean_motion": 15.67861921,
        "meta_eccentricity": 0.00017445,
        "meta_inclination": 42.9996,
        "meta_ra_of_asc_node": 165.1998,
        "meta_arg_of_pericenter": 262.8309,
        "meta_mean_anomaly": 14.0248,
        "meta_ephemeris_type": 0,
        "meta_classification_type": "U",
        "meta_norad_cat_id": 66578,
        "meta_element_set_no": 999,
        "meta_rev_at_epoch": 346,
        "meta_bstar": -0.019898056,
        "meta_mean_motion_dot": -0.01989255,
        "meta_mean_motion_ddot": 0,
        "tle_line1": "1 66578U 25268X   25339.25002315 -.01989255  00000+0 -19898-1 0  9991",
        "tle_line2": "2 66578  42.9996 165.1998 0001744 262.8309  14.0248 15.67861921  3466"
      },
      "geometry": {
        "type": "Point",
        "coordinates": [
          -120.97974108238785,
          42.51693041113505
        ]
      }
    },
    {
      "type": "Feature",
      "properties": {
        "norad_id": 66579,
        "name": "STARLINK-35868",
        "group": "last-30-days",
        "lat": 42.7201281564626,
        "lon": -118.40433681352819,
        "alt_km": 371.8035491238061,
        "timestamp": "2025-12-06T05:40:08.012165+00:00",
        "meta_object_name": "STARLINK-35868",
        "meta_object_id": "2025-268Y",
        "meta_epoch": "2025-12-05T06:00:02.000160",
        "meta_mean_motion": 15.6786196,
        "meta_eccentricity": 0.00018104,
        "meta_inclination": 42.9994,
        "meta_ra_of_asc_node": 165.1948,
        "meta_arg_of_pericenter": 262.5535,
        "meta_mean_anomaly": 16.2216,
        "meta_ephemeris_type": 0,
        "meta_classification_type": "U",
        "meta_norad_cat_id": 66579,
        "meta_element_set_no": 999,
        "meta_rev_at_epoch": 346,
        "meta_bstar": -0.019929805,
        "meta_mean_motion_dot": -0.01992106,
        "meta_mean_motion_ddot": 0,
        "tle_line1": "1 66579U 25268Y   25339.25002315 -.01992106  00000+0 -19930-1 0  9998",
        "tle_line2": "2 66579  42.9994 165.1948 0001810 262.5535  16.2216 15.67861960  3464"
      },
      "geometry": {
        "type": "Point",
        "coordinates": [
          -118.40433681352819,
          42.7201281564626
        ]
      }
    },
    {
      "type": "Feature",
      "properties": {
        "norad_id": 66580,
        "name": "STARLINK-35872",
        "group": "last-30-days",
        "lat": 42.86633253067532,
        "lon": -115.79183923325976,
        "alt_km": 371.7102407623597,
        "timestamp": "2025-12-06T05:40:08.012177+00:00",
        "meta_object_name": "STARLINK-35872",
        "meta_object_id": "2025-268Z",
        "meta_epoch": "2025-12-05T06:00:02.000160",
        "meta_mean_motion": 15.67862502,
        "meta_eccentricity": 0.00017244,
        "meta_inclination": 42.9995,
        "meta_ra_of_asc_node": 165.1905,
        "meta_arg_of_pericenter": 262.5441,
        "meta_mean_anomaly": 18.1462,
        "meta_ephemeris_type": 0,
        "meta_classification_type": "U",
        "meta_norad_cat_id": 66580,
        "meta_element_set_no": 999,
        "meta_rev_at_epoch": 346,
        "meta_bstar": -0.01991038,
        "meta_mean_motion_dot": -0.01990365,
        "meta_mean_motion_ddot": 0,
        "tle_line1": "1 66580U 25268Z   25339.25002315 -.01990365  00000+0 -19910-1 0  9993",
        "tle_line2": "2 66580  42.9995 165.1905 0001724 262.5441  18.1462 15.67862502  3467"
      },
      "geometry": {
        "type": "Point",
        "coordinates": [
          -115.79183923325976,
          42.86633253067532
        ]
      }
    },
    {
      "type": "Feature",
      "properties": {
        "norad_id": 66581,
        "name": "STARLINK-35744",
        "group": "last-30-days",
        "lat": 42.95238901226345,
        "lon": -113.18533522452103,
        "alt_km": 371.7472161195237,
        "timestamp": "2025-12-06T05:40:08.012188+00:00",
        "meta_object_name": "STARLINK-35744",
        "meta_object_id": "2025-268AA",
        "meta_epoch": "2025-12-05T06:00:02.000160",
        "meta_mean_motion": 15.67861755,
        "meta_eccentricity": 0.00017832,
        "meta_inclination": 42.9996,
        "meta_ra_of_asc_node": 165.1849,
        "meta_arg_of_pericenter": 264.3258,
        "meta_mean_anomaly": 18.2834,
        "meta_ephemeris_type": 0,
        "meta_classification_type": "U",
        "meta_norad_cat_id": 66581,
        "meta_element_set_no": 999,
        "meta_rev_at_epoch": 341,
        "meta_bstar": -0.019922093,
        "meta_mean_motion_dot": -0.0199139,
        "meta_mean_motion_ddot": 0,
        "tle_line1": "1 66581U 25268AA  25339.25002315 -.01991390  00000+0 -19922-1 0  9996",
        "tle_line2": "2 66581  42.9996 165.1849 0001783 264.3258  18.2834 15.67861755  3415"
      },
      "geometry": {
        "type": "Point",
        "coordinates": [
          -113.18533522452103,
          42.95238901226345
        ]
      }
    },
    {
      "type": "Feature",
      "properties": {
        "norad_id": 66582,
        "name": "STARLINK-35746",
        "group": "last-30-days",
        "lat": 42.97879280452869,
        "lon": -110.5476516308639,
        "alt_km": 371.7494906053389,
        "timestamp": "2025-12-06T05:40:08.012198+00:00",
        "meta_object_name": "STARLINK-35746",
        "meta_object_id": "2025-268AB",
        "meta_epoch": "2025-12-05T06:00:02.000160",
        "meta_mean_motion": 15.67857911,
        "meta_eccentricity": 0.00018368,
        "meta_inclination": 42.9996,
        "meta_ra_of_asc_node": 165.18,
        "meta_arg_of_pericenter": 264.0395,
        "meta_mean_anomaly": 20.486,
        "meta_ephemeris_type": 0,
        "meta_classification_type": "U",
        "meta_norad_cat_id": 66582,
        "meta_element_set_no": 999,
        "meta_rev_at_epoch": 346,
        "meta_bstar": -0.019840784,
        "meta_mean_motion_dot": -0.01984,
        "meta_mean_motion_ddot": 0,
        "tle_line1": "1 66582U 25268AB  25339.25002315 -.01984000  00000+0 -19841-1 0  9997",
        "tle_line2": "2 66582  42.9996 165.1800 0001836 264.0395  20.4860 15.67857911  3469"
      },
      "geometry": {
        "type": "Point",
        "coordinates": [
          -110.5476516308639,
          42.97879280452869
        ]
      }
    },
    {
      "type": "Feature",
      "properties": {
        "norad_id": 66583,
        "name": "STARLINK-35941",
        "group": "last-30-days",
        "lat": 42.945137744645116,
        "lon": -107.93638357583174,
        "alt_km": 371.7913863812091,
        "timestamp": "2025-12-06T05:40:08.012208+00:00",
        "meta_object_name": "STARLINK-35941",
        "meta_object_id": "2025-268AC",
        "meta_epoch": "2025-12-05T06:00:02.000160",
        "meta_mean_motion": 15.6785838,
        "meta_eccentricity": 0.00018737,
        "meta_inclination": 42.9997,
        "meta_ra_of_asc_node": 165.1753,
        "meta_arg_of_pericenter": 264.1717,
        "meta_mean_anomaly": 22.2713,
        "meta_ephemeris_type": 0,
        "meta_classification_type": "U",
        "meta_norad_cat_id": 66583,
        "meta_element_set_no": 999,
        "meta_rev_at_epoch": 346,
        "meta_bstar": -0.019857669,
        "meta_mean_motion_dot": -0.0198555,
        "meta_mean_motion_ddot": 0,
        "tle_line1": "1 66583U 25268AC  25339.25002315 -.01985550  00000+0 -19858-1 0  9997",
        "tle_line2": "2 66583  42.9997 165.1753 0001873 264.1717  22.2713 15.67858380  3466"
      },
      "geometry": {
        "type": "Point",
        "coordinates": [
          -107.93638357583174,
          42.945137744645116
        ]
      }
    },
    {
      "type": "Feature",
      "properties": {
        "norad_id": 66584,
        "name": "STARLINK-35939",
        "group": "last-30-days",
        "lat": 42.852484274104924,
        "lon": -105.34424211565884,
        "alt_km": 371.8013586204697,
        "timestamp": "2025-12-06T05:40:08.012220+00:00",
        "meta_object_name": "STARLINK-35939",
        "meta_object_id": "2025-268AD",
        "meta_epoch": "2025-12-05T06:00:02.000160",
        "meta_mean_motion": 15.67861243,
        "meta_eccentricity": 0.00018259,
        "meta_inclination": 42.9996,
        "meta_ra_of_asc_node": 165.1709,
        "meta_arg_of_pericenter": 263.359,
        "meta_mean_anomaly": 25.0027,
        "meta_ephemeris_type": 0,
        "meta_classification_type": "U",
        "meta_norad_cat_id": 66584,
        "meta_element_set_no": 999,
        "meta_rev_at_epoch": 346,
        "meta_bstar": -0.019928133,
        "meta_mean_motion_dot": -0.01991919,
        "meta_mean_motion_ddot": 0,
        "tle_line1": "1 66584U 25268AD  25339.25002315 -.01991919  00000+0 -19928-1 0  9992",
        "tle_line2": "2 66584  42.9996 165.1709 0001825 263.3590  25.0027 15.67861243  3465"
      },
      "geometry": {
        "type": "Point",
        "coordinates": [
          -105.34424211565884,
          42.852484274104924
        ]
      }
    }
  ]
}